TEVEL2-8                
1 63239U 25052AF  26062.64434470  .00022928  00000+0  83670-3 0  9994
2 63239  97.4074 318.3034 0007480 142.3378 217.8387 15.28119678 53883
HADES-ICM               
1 63492U 25052BN  26062.65216698  .00157932  00000+0  23190-2 0  9990
2 63492  97.3970 322.8879 0008396 122.9792 237.2270 15.54914942 54206
